ORBCOMM-X               
1 21576U 91050C   25152.15451035  .00000336  00000+0  11270-3 0  9990
2 21576  98.3440 219.0790 0002723 217.9578 142.1421 14.43250594780021
ORBCOMM FM01            
1 23545U 95017A   25152.42356738  .00006871  00000+0  72125-3 0  9995
2 23545  69.9626 113.4376 0004905 301.4521  58.6153 14.89898137610517
ORBCOMM FM02            
1 23546U 95017B   25152.17383756  .00007773  00000+0  79831-3 0  9991
2 23546  69.9637 133.5014 0006212 309.9225  50.1383 14.90708083610074
ORBCOMM FM08            
1 25112U 97084A   25152.49517073  .00003362  00000+0  97901-3 0  9992
2 25112  45.0142  83.1888 0004676 173.4501 186.6412 14.45776465439271
ORBCOMM FM10            
1 25113U 97084B   25152.54310067  .00003399  00000+0  99374-3 0  9999
2 25113  45.0155  85.3121 0003138 123.9977 236.1173 14.45565044439262
ORBCOMM FM11            
1 25114U 97084C   25152.54493656  .00003341  00000+0  98238-3 0  9991
2 25114  45.0141  85.9076 0003895 128.7108 231.4092 14.45317741439247
ORBCOMM FM12            
1 25115U 97084D   25152.50765918  .00002967  00000+0  87677-3 0  9999
2 25115  45.0148  85.8384 0002937 121.4632 238.6506 14.45336391439245
ORBCOMM FM09            
1 25116U 97084E   25152.53862591  .00003172  00000+0  93695-3 0  9994
2 25116  45.0151  86.6070 0004441 110.8408 249.2920 14.45214476439243
